QIANFAN-97              
1 66039U 25233G   26202.07442285  .00000029  00000+0  26336-4 0  9997
2 66039  88.9986  39.7601 0002095  94.3156 265.8235 13.51015997 37769
QIANFAN-98              
1 66040U 25233H   26202.23075484  .00000019  00000+0  10673-4 0  9996
2 66040  88.9975  39.4714 0002378  81.5025 278.6396 13.51015686 37921
QIANFAN-99              
1 66041U 25233J   26202.08673106  .00000024  00000+0  18893-4 0  9993
2 66041  88.9987  39.7630 0002359  86.1004 274.0417 13.51015767 37768
QIANFAN-100             
1 66042U 25233K   26202.07845375  .00000016  00000+0  66639-5 0  9995
2 66042  88.9997  39.6946 0002069  94.3482 265.7905 13.51015814 37816
QIANFAN-101             
1 66043U 25233L   26202.09726736  .00000208  00000+0  79756-4 0  9993
2 66043  88.9984  36.6721 0016628  40.2531 319.9891 14.26824628 39465
QIANFAN-102             
1 66044U 25233M   26202.09910232  .00000043  00000+0  48027-4 0  9994
2 66044  88.9984  39.6706 0002161  88.9721 271.1678 13.51015742 37814
QIANFAN-103             
1 66045U 25233N   26202.25133160  .00000034  00000+0  34079-4 0  9992
2 66045  88.9987  39.7513 0002079  94.6660 265.4728 13.51016613 37785
QIANFAN-104             
1 66046U 25233P   26202.25556687  .00000029  00000+0  26823-4 0  9998
2 66046  88.9992  39.6545 0002081  87.0214 273.1176 13.51022123 37832
QIANFAN-105             
1 66047U 25233Q   26202.11569647  .00000027  00000+0  23506-4 0  9997
2 66047  89.0005  39.5161 0002200  92.1820 267.9583 13.51021305 37920
QIANFAN-106             
1 66048U 25233R   26202.25960749  .00000024  00000+0  18724-4 0  9994
2 66048  88.9974  39.7039 0002314  82.5524 277.5890 13.51015662 37781
QIANFAN-107             
1 66049U 25233S   26202.11969712  .00000022  00000+0  15246-4 0  9993
2 66049  88.9989  39.7561 0002069  93.8851 266.2537 13.51015131 37776
QIANFAN-108             
1 66050U 25233T   26202.27191466  .00000033  00000+0  32217-4 0  9994
2 66050  88.9982  39.7259 0002283  83.6135 276.5276 13.51016378 37795
QIANFAN-109             
1 68636U 26075A   26202.28602245  .00000128  00000+0  17883-3 0  9990
2 68636  88.9918 317.5313 0002436 114.6061 245.5344 13.51025158 14396
QIANFAN-110             
1 68637U 26075B   26202.29425944  .00000117  00000+0  16313-3 0  9996
2 68637  88.9919 317.5520 0002062 104.8158 255.3222 13.51016743 14395
QIANFAN-111             
1 68638U 26075C   26202.13374629  .00000131  00000+0  18493-3 0  9990
2 68638  88.9918 317.5277 0002031 103.9549 256.1828 13.51023614 14390
QIANFAN-112             
1 68639U 26075D   26202.24474525  .00000130  00000+0  18220-3 0  9996
2 68639  88.9916 317.5251 0002242 117.9046 242.2332 13.51014140 14404
