{"fetched_at":"2026-07-21T17:53:08.726Z","source":"https://celestrak.org/NORAD/elements/gp.php?GROUP=qianfan&FORMAT=JSON","constellation":"qianfan","records":[{"OBJECT_NAME":"QIANFAN-97","OBJECT_ID":"2025-233G","EPOCH":"2026-07-21T01:47:10.134240","CLASSIFICATION_TYPE":"U","MEAN_MOTION":13.51015997,"ECCENTRICITY":0.00020956,"INCLINATION":88.9986,"RA_OF_ASC_NODE":39.7601,"ARG_OF_PERICENTER":94.3156,"MEAN_ANOMALY":265.8235,"EPHEMERIS_TYPE":0,"NORAD_CAT_ID":66039,"ELEMENT_SET_NO":999,"REV_AT_EPOCH":3776,"BSTAR":0.000026336054,"MEAN_MOTION_DOT":2.9e-7,"MEAN_MOTION_DDOT":0},{"OBJECT_NAME":"QIANFAN-98","OBJECT_ID":"2025-233H","EPOCH":"2026-07-21T05:32:17.218176","CLASSIFICATION_TYPE":"U","MEAN_MOTION":13.51015686,"ECCENTRICITY":0.00023785,"INCLINATION":88.9975,"RA_OF_ASC_NODE":39.4714,"ARG_OF_PERICENTER":81.5025,"MEAN_ANOMALY":278.6396,"EPHEMERIS_TYPE":0,"NORAD_CAT_ID":66040,"ELEMENT_SET_NO":999,"REV_AT_EPOCH":3792,"BSTAR":0.000010673351,"MEAN_MOTION_DOT":1.9e-7,"MEAN_MOTION_DDOT":0},{"OBJECT_NAME":"QIANFAN-99","OBJECT_ID":"2025-233J","EPOCH":"2026-07-21T02:04:53.563584","CLASSIFICATION_TYPE":"U","MEAN_MOTION":13.51015767,"ECCENTRICITY":0.00023598,"INCLINATION":88.9987,"RA_OF_ASC_NODE":39.763,"ARG_OF_PERICENTER":86.1004,"MEAN_ANOMALY":274.0417,"EPHEMERIS_TYPE":0,"NORAD_CAT_ID":66041,"ELEMENT_SET_NO":999,"REV_AT_EPOCH":3776,"BSTAR":0.000018893151,"MEAN_MOTION_DOT":2.4e-7,"MEAN_MOTION_DDOT":0},{"OBJECT_NAME":"QIANFAN-100","OBJECT_ID":"2025-233K","EPOCH":"2026-07-21T01:52:58.404000","CLASSIFICATION_TYPE":"U","MEAN_MOTION":13.51015814,"ECCENTRICITY":0.00020697,"INCLINATION":88.9997,"RA_OF_ASC_NODE":39.6946,"ARG_OF_PERICENTER":94.3482,"MEAN_ANOMALY":265.7905,"EPHEMERIS_TYPE":0,"NORAD_CAT_ID":66042,"ELEMENT_SET_NO":999,"REV_AT_EPOCH":3781,"BSTAR":0.000006663858,"MEAN_MOTION_DOT":1.6e-7,"MEAN_MOTION_DDOT":0},{"OBJECT_NAME":"QIANFAN-101","OBJECT_ID":"2025-233L","EPOCH":"2026-07-21T02:20:03.899904","CLASSIFICATION_TYPE":"U","MEAN_MOTION":14.26824628,"ECCENTRICITY":0.00166288,"INCLINATION":88.9984,"RA_OF_ASC_NODE":36.6721,"ARG_OF_PERICENTER":40.2531,"MEAN_ANOMALY":319.9891,"EPHEMERIS_TYPE":0,"NORAD_CAT_ID":66043,"ELEMENT_SET_NO":999,"REV_AT_EPOCH":3946,"BSTAR":0.000079755787,"MEAN_MOTION_DOT":0.00000208,"MEAN_MOTION_DDOT":0},{"OBJECT_NAME":"QIANFAN-102","OBJECT_ID":"2025-233M","EPOCH":"2026-07-21T02:22:42.440448","CLASSIFICATION_TYPE":"U","MEAN_MOTION":13.51015742,"ECCENTRICITY":0.00021617,"INCLINATION":88.9984,"RA_OF_ASC_NODE":39.6706,"ARG_OF_PERICENTER":88.9721,"MEAN_ANOMALY":271.1678,"EPHEMERIS_TYPE":0,"NORAD_CAT_ID":66044,"ELEMENT_SET_NO":999,"REV_AT_EPOCH":3781,"BSTAR":0.0000480267,"MEAN_MOTION_DOT":4.3e-7,"MEAN_MOTION_DDOT":0},{"OBJECT_NAME":"QIANFAN-103","OBJECT_ID":"2025-233N","EPOCH":"2026-07-21T06:01:55.050240","CLASSIFICATION_TYPE":"U","MEAN_MOTION":13.51016613,"ECCENTRICITY":0.00020798,"INCLINATION":88.9987,"RA_OF_ASC_NODE":39.7513,"ARG_OF_PERICENTER":94.666,"MEAN_ANOMALY":265.4728,"EPHEMERIS_TYPE":0,"NORAD_CAT_ID":66045,"ELEMENT_SET_NO":999,"REV_AT_EPOCH":3778,"BSTAR":0.000034079043,"MEAN_MOTION_DOT":3.4e-7,"MEAN_MOTION_DDOT":0},{"OBJECT_NAME":"QIANFAN-104","OBJECT_ID":"2025-233P","EPOCH":"2026-07-21T06:08:00.977568","CLASSIFICATION_TYPE":"U","MEAN_MOTION":13.51022123,"ECCENTRICITY":0.0002081,"INCLINATION":88.9992,"RA_OF_ASC_NODE":39.6545,"ARG_OF_PERICENTER":87.0214,"MEAN_ANOMALY":273.1176,"EPHEMERIS_TYPE":0,"NORAD_CAT_ID":66046,"ELEMENT_SET_NO":999,"REV_AT_EPOCH":3783,"BSTAR":0.000026823342,"MEAN_MOTION_DOT":2.9e-7,"MEAN_MOTION_DDOT":0},{"OBJECT_NAME":"QIANFAN-105","OBJECT_ID":"2025-233Q","EPOCH":"2026-07-21T02:46:36.175008","CLASSIFICATION_TYPE":"U","MEAN_MOTION":13.51021305,"ECCENTRICITY":0.00022005,"INCLINATION":89.0005,"RA_OF_ASC_NODE":39.5161,"ARG_OF_PERICENTER":92.182,"MEAN_ANOMALY":267.9583,"EPHEMERIS_TYPE":0,"NORAD_CAT_ID":66047,"ELEMENT_SET_NO":999,"REV_AT_EPOCH":3792,"BSTAR":0.000023505664,"MEAN_MOTION_DOT":2.7e-7,"MEAN_MOTION_DDOT":0},{"OBJECT_NAME":"QIANFAN-106","OBJECT_ID":"2025-233R","EPOCH":"2026-07-21T06:13:50.087136","CLASSIFICATION_TYPE":"U","MEAN_MOTION":13.51015662,"ECCENTRICITY":0.00023147,"INCLINATION":88.9974,"RA_OF_ASC_NODE":39.7039,"ARG_OF_PERICENTER":82.5524,"MEAN_ANOMALY":277.589,"EPHEMERIS_TYPE":0,"NORAD_CAT_ID":66048,"ELEMENT_SET_NO":999,"REV_AT_EPOCH":3778,"BSTAR":0.000018723667,"MEAN_MOTION_DOT":2.4e-7,"MEAN_MOTION_DDOT":0},{"OBJECT_NAME":"QIANFAN-107","OBJECT_ID":"2025-233S","EPOCH":"2026-07-21T02:52:21.831168","CLASSIFICATION_TYPE":"U","MEAN_MOTION":13.51015131,"ECCENTRICITY":0.00020696,"INCLINATION":88.9989,"RA_OF_ASC_NODE":39.7561,"ARG_OF_PERICENTER":93.8851,"MEAN_ANOMALY":266.2537,"EPHEMERIS_TYPE":0,"NORAD_CAT_ID":66049,"ELEMENT_SET_NO":999,"REV_AT_EPOCH":3777,"BSTAR":0.000015245723,"MEAN_MOTION_DOT":2.2e-7,"MEAN_MOTION_DDOT":0},{"OBJECT_NAME":"QIANFAN-108","OBJECT_ID":"2025-233T","EPOCH":"2026-07-21T06:31:33.426624","CLASSIFICATION_TYPE":"U","MEAN_MOTION":13.51016378,"ECCENTRICITY":0.00022838,"INCLINATION":88.9982,"RA_OF_ASC_NODE":39.7259,"ARG_OF_PERICENTER":83.6135,"MEAN_ANOMALY":276.5276,"EPHEMERIS_TYPE":0,"NORAD_CAT_ID":66050,"ELEMENT_SET_NO":999,"REV_AT_EPOCH":3779,"BSTAR":0.000032217085,"MEAN_MOTION_DOT":3.3e-7,"MEAN_MOTION_DDOT":0},{"OBJECT_NAME":"QIANFAN-109","OBJECT_ID":"2026-075A","EPOCH":"2026-07-21T06:51:52.339680","CLASSIFICATION_TYPE":"U","MEAN_MOTION":13.51025158,"ECCENTRICITY":0.00024365,"INCLINATION":88.9918,"RA_OF_ASC_NODE":317.5313,"ARG_OF_PERICENTER":114.6061,"MEAN_ANOMALY":245.5344,"EPHEMERIS_TYPE":0,"NORAD_CAT_ID":68636,"ELEMENT_SET_NO":999,"REV_AT_EPOCH":1439,"BSTAR":0.00017882932,"MEAN_MOTION_DOT":0.00000128,"MEAN_MOTION_DDOT":0},{"OBJECT_NAME":"QIANFAN-110","OBJECT_ID":"2026-075B","EPOCH":"2026-07-21T07:03:44.015616","CLASSIFICATION_TYPE":"U","MEAN_MOTION":13.51016743,"ECCENTRICITY":0.00020623,"INCLINATION":88.9919,"RA_OF_ASC_NODE":317.552,"ARG_OF_PERICENTER":104.8158,"MEAN_ANOMALY":255.3222,"EPHEMERIS_TYPE":0,"NORAD_CAT_ID":68637,"ELEMENT_SET_NO":999,"REV_AT_EPOCH":1439,"BSTAR":0.00016313386,"MEAN_MOTION_DOT":0.00000117,"MEAN_MOTION_DDOT":0},{"OBJECT_NAME":"QIANFAN-111","OBJECT_ID":"2026-075C","EPOCH":"2026-07-21T03:12:35.679456","CLASSIFICATION_TYPE":"U","MEAN_MOTION":13.51023614,"ECCENTRICITY":0.00020317,"INCLINATION":88.9918,"RA_OF_ASC_NODE":317.5277,"ARG_OF_PERICENTER":103.9549,"MEAN_ANOMALY":256.1828,"EPHEMERIS_TYPE":0,"NORAD_CAT_ID":68638,"ELEMENT_SET_NO":999,"REV_AT_EPOCH":1439,"BSTAR":0.00018493472,"MEAN_MOTION_DOT":0.00000131,"MEAN_MOTION_DDOT":0},{"OBJECT_NAME":"QIANFAN-112","OBJECT_ID":"2026-075D","EPOCH":"2026-07-21T05:52:25.989600","CLASSIFICATION_TYPE":"U","MEAN_MOTION":13.5101414,"ECCENTRICITY":0.0002242,"INCLINATION":88.9916,"RA_OF_ASC_NODE":317.5251,"ARG_OF_PERICENTER":117.9046,"MEAN_ANOMALY":242.2332,"EPHEMERIS_TYPE":0,"NORAD_CAT_ID":68639,"ELEMENT_SET_NO":999,"REV_AT_EPOCH":1440,"BSTAR":0.00018220488,"MEAN_MOTION_DOT":0.0000013,"MEAN_MOTION_DDOT":0}]}
